OBJECT_NAME,OBJECT_ID,EPOCH,MEAN_MOTION,ECCENTRICITY,INCLINATION,RA_OF_ASC_NODE,ARG_OF_PERICENTER,MEAN_ANOMALY,EPHEMERIS_TYPE,CLASSIFICATION_TYPE,NORAD_CAT_ID,ELEMENT_SET_NO,REV_AT_EPOCH,BSTAR,MEAN_MOTION_DOT,MEAN_MOTION_DDOT
GAOFEN-11 01,2018-063A,2026-06-25T08:15:14.166144,15.55504723,.00022289,97.1288,243.2018,319.5801,40.5288,0,U,43585,999,44161,.27041425E-3,.18385E-3,0
ICESAT-2,2018-070A,2026-06-25T00:17:37.313088,15.28350526,.00061392,92.0079,293.0932,93.2467,266.9485,0,U,43613,999,43365,.40037453E-3,.11058E-3,0
HYSIS,2018-096A,2026-06-25T07:58:07.266720,14.78628708,.0001822,97.9837,243.0164,93.8902,266.2518,0,U,43719,999,40862,.70739036E-4,.466E-5,0
KAZSTSAT,2018-099AB,2026-06-25T00:52:30.201888,14.99891495,.00085995,97.4283,207.6085,48.4384,311.7576,0,U,43783,999,41248,.15043134E-3,.181E-4,0
SAUDISAT 5A,2018-102A,2026-06-25T06:50:07.449216,15.28124237,.00113103,97.3069,237.7096,104.5124,255.7371,0,U,43831,999,41691,.22633738E-3,.6143E-4,0
SAUDISAT 5B,2018-102C,2026-06-25T07:15:18.921312,15.28377521,.00120121,97.3177,240.8112,106.3692,253.8870,0,U,43833,999,41703,.2218587E-3,.6069E-4,0
GAOFEN-10R,2019-066A,2026-06-25T07:37:23.795328,14.83016093,.00070993,98.0499,129.9561,104.0524,256.1479,0,U,44622,999,36358,.14525299E-3,.1126E-4,0
CARTOSAT-3,2019-081A,2026-06-24T17:33:16.166304,15.19327117,.00138638,97.4306,237.4776,124.8355,235.4186,0,U,44804,999,36461,.17742238E-3,.3688E-4,0
GAOFEN-12 01,2019-082A,2026-06-25T06:11:17.255040,14.80464414,.00019838,97.8101,182.4242,61.7883,298.3530,0,U,44819,999,35528,.53587291E-4,.359E-5,0
CSG-1,2019-092A,2026-06-25T06:54:11.028096,14.82159412,.00014513,97.8890,359.7728,89.7596,270.3784,0,U,44873,999,35267,.58947434E-4,.417E-5,0
NEMO-HD,2020-061F,2026-06-25T07:00:48.748032,15.44745151,.00019102,97.1921,238.1635,75.0857,285.0604,0,U,46277,999,32323,.28009247E-3,.13011E-3,0
SENTINEL-6A,2020-086A,2026-06-25T04:55:44.899392,12.80930024,.00078802,66.0407,118.3987,270.0830,89.9282,0,U,46984,999,26135,-.3773546E-5,-.62E-6,0
CAS500-1,2021-022A,2026-06-25T06:59:14.534016,15.20157792,.00034854,97.3897,71.3803,255.6339,104.4510,0,U,47932,999,29199,.32273989E-3,.6918E-4,0
GAOFEN-12 02,2021-026A,2026-06-25T06:28:27.550848,14.80301671,.00043156,97.9923,174.4173,190.9673,169.1446,0,U,48079,999,28295,.49935586E-4,.328E-5,0
PLEIADES NEO 3,2021-034A,2026-06-25T06:56:53.773728,14.81672440,.00013341,97.8930,250.9395,90.4161,269.7205,0,U,48268,999,27885,.84144632E-4,.61E-5,0
PLEIADES NEO 4,2021-073E,2026-06-25T06:08:14.932032,14.81678061,.00013855,97.8933,250.9025,87.8363,272.3008,0,U,49070,999,26256,.13308906E-3,.996E-5,0
LANDSAT 9,2021-088A,2026-06-25T03:53:38.655744,14.57102133,.00012869,98.2278,246.2431,84.5401,275.5944,0,U,49260,999,25216,.78902493E-4,.31E-5,0
CSG-2,2022-008A,2026-06-25T07:42:44.843040,14.82158732,.00015131,97.8892,359.8008,87.0774,273.0612,0,U,51444,999,23779,-.5088124E-5,-.93E-6,0
GAOFEN-12 03,2022-069A,2026-06-25T07:13:35.912640,14.80043910,.00022768,97.8273,63.9663,93.4639,266.6833,0,U,52912,999,21581,.66119736E-4,.45E-5,0
SWOT,2022-173A,2026-06-25T06:38:48.394464,14.00170530,.00002859,77.6103,24.3888,88.6322,271.4863,0,U,54754,999,18028,.34291673E-4,.48E-6,0
GAOFEN-12 04,2023-123A,2026-06-25T04:21:22.464864,14.80242398,.00017577,97.9118,94.0845,80.1446,279.9964,0,U,57654,999,15381,.12350226E-3,.888E-5,0
PARS 1,2024-039Q,2026-06-25T06:38:32.684352,15.45879132,.00115207,97.4821,157.4517,87.9590,272.2978,0,U,59065,999,12989,.24920307E-3,.12046E-3,0
RESURS-P 4,2024-061A,2026-06-25T07:06:40.059072,15.32173305,.00027026,97.2749,124.0537,117.4409,242.7109,0,U,59371,999,12500,.10414331E-3,.3159E-4,0
LEGION 1,2024-081A,2026-06-25T06:37:21.665280,15.16716943,.00087417,97.5019,254.0465,349.8137,10.2918,0,U,59625,999,11876,.20759813E-3,.4005E-4,0
LEGION 2,2024-081B,2026-06-25T05:45:41.572800,15.16693889,.00101244,97.5018,254.1083,313.1623,46.8763,0,U,59626,999,11876,.22290286E-3,.4304E-4,0
ALOS-4 (DAICHI-4),2024-123A,2026-06-25T06:35:14.127648,14.79471164,.00015789,97.9216,273.3345,95.3814,264.7578,0,U,60182,999,10707,.17129635E-3,.1228E-4,0
LEGION 3,2024-146A,2026-06-25T04:04:22.913760,15.16097318,.00086364,45.0027,347.7422,215.0626,144.9685,0,U,60452,999,10323,.23079179E-3,.4261E-4,0
LEGION 4,2024-146B,2026-06-25T05:43:48.457056,15.16089416,.00128841,45.0016,79.2821,351.7031,8.3633,0,U,60453,999,10209,.22294249E-3,.4109E-4,0
SENTINEL-2C,2024-157A,2026-06-25T05:08:52.584864,14.30819807,.0000934,98.5691,250.8831,87.3726,272.7564,0,U,60989,999,9413,.48953769E-4,.85E-6,0
IONOSFERA-M 1,2024-199A,2026-06-25T06:45:01.727136,14.22755695,.00021383,98.7165,49.3677,99.7469,260.3950,0,U,61735,999,12885,.40434873E-4,.47E-6,0
