[{"id":"43585","name":"GAOFEN-11 01","tle1":"1 43585U 18063A   26176.34391396  .00018385  00000+0  27041-3 0  9994","tle2":"2 43585  97.1288 243.2018 0002228 319.5801  40.5288 15.55504723441613"},{"id":"43613","name":"ICESAT-2","tle1":"1 43613U 18070A   26176.01223742  .00011058  00000+0  40037-3 0  9997","tle2":"2 43613  92.0079 293.0932 0006139  93.2467 266.9485 15.28350526433652"},{"id":"43719","name":"HYSIS","tle1":"1 43719U 18096A   26176.33202855  .00000466  00000+0  70739-4 0  9993","tle2":"2 43719  97.9837 243.0164 0001822  93.8902 266.2518 14.78628708408624"},{"id":"43783","name":"KAZSTSAT","tle1":"1 43783U 18099AB  26176.03646067  .00001810  00000+0  15043-3 0  9991","tle2":"2 43783  97.4283 207.6085 0008599  48.4384 311.7576 14.99891495412488"},{"id":"43831","name":"SAUDISAT 5A","tle1":"1 43831U 18102A   26176.28480844  .00006143  00000+0  22634-3 0  9994","tle2":"2 43831  97.3069 237.7096 0011310 104.5124 255.7371 15.28124237416918"},{"id":"43833","name":"SAUDISAT 5B","tle1":"1 43833U 18102C   26176.30230233  .00006069  00000+0  22186-3 0  9993","tle2":"2 43833  97.3177 240.8112 0012012 106.3692 253.8870 15.28377521417037"},{"id":"44622","name":"GAOFEN-10R","tle1":"1 44622U 19066A   26176.31763652  .00001126  00000+0  14525-3 0  9994","tle2":"2 44622  98.0499 129.9561 0007099 104.0524 256.1479 14.83016093363587"},{"id":"44804","name":"CARTOSAT-3","tle1":"1 44804U 19081A   26175.73143711  .00003688  00000+0  17742-3 0  9995","tle2":"2 44804  97.4306 237.4776 0013863 124.8355 235.4186 15.19327117364612"},{"id":"44819","name":"GAOFEN-12 01","tle1":"1 44819U 19082A   26176.25783860  .00000359  00000+0  53587-4 0  9995","tle2":"2 44819  97.8101 182.4242 0001983  61.7883 298.3530 14.80464414355280"},{"id":"44873","name":"CSG-1","tle1":"1 44873U 19092A   26176.28762764  .00000417  00000+0  58947-4 0  9999","tle2":"2 44873  97.8890 359.7728 0001451  89.7596 270.3784 14.82159412352676"},{"id":"46277","name":"NEMO-HD","tle1":"1 46277U 20061F   26176.29223088  .00013011  00000+0  28009-3 0  9998","tle2":"2 46277  97.1921 238.1635 0001910  75.0857 285.0604 15.44745151323233"},{"id":"46984","name":"SENTINEL-6A","tle1":"1 46984U 20086A   26176.20538078 -.00000062  00000+0 -37735-5 0  9991","tle2":"2 46984  66.0407 118.3987 0007880 270.0830  89.9282 12.80930024261350"},{"id":"47932","name":"CAS500-1","tle1":"1 47932U 21022A   26176.29114044  .00006918  00000+0  32274-3 0  9993","tle2":"2 47932  97.3897  71.3803 0003485 255.6339 104.4510 15.20157792291999"},{"id":"48079","name":"GAOFEN-12 02","tle1":"1 48079U 21026A   26176.26976332  .00000328  00000+0  49936-4 0  9996","tle2":"2 48079  97.9923 174.4173 0004315 190.9673 169.1446 14.80301671282952"},{"id":"48268","name":"PLEIADES NEO 3","tle1":"1 48268U 21034A   26176.28951127  .00000610  00000+0  84145-4 0  9997","tle2":"2 48268  97.8930 250.9395 0001334  90.4161 269.7205 14.81672440278859"},{"id":"49070","name":"PLEIADES NEO 4","tle1":"1 49070U 21073E   26176.25572838  .00000996  00000+0  13309-3 0  9997","tle2":"2 49070  97.8933 250.9025 0001385  87.8363 272.3008 14.81678061262561"},{"id":"49260","name":"LANDSAT 9","tle1":"1 49260U 21088A   26176.16225296  .00000310  00000+0  78902-4 0  9998","tle2":"2 49260  98.2278 246.2431 0001286  84.5401 275.5944 14.57102133252169"},{"id":"51444","name":"CSG-2","tle1":"1 51444U 22008A   26176.32135235 -.00000093  00000+0 -50881-5 0  9996","tle2":"2 51444  97.8892 359.8008 0001513  87.0774 273.0612 14.82158732237799"},{"id":"52912","name":"GAOFEN-12 03","tle1":"1 52912U 22069A   26176.30111010  .00000450  00000+0  66120-4 0  9994","tle2":"2 52912  97.8273  63.9663 0002276  93.4639 266.6833 14.80043910215812"},{"id":"54754","name":"SWOT","tle1":"1 54754U 22173A   26176.27694901  .00000048  00000+0  34292-4 0  9995","tle2":"2 54754  77.6103  24.3888 0000285  88.6322 271.4863 14.00170530180289"},{"id":"57654","name":"GAOFEN-12 04","tle1":"1 57654U 23123A   26176.18151001  .00000888  00000+0  12350-3 0  9994","tle2":"2 57654  97.9118  94.0845 0001757  80.1446 279.9964 14.80242398153812"},{"id":"59065","name":"PARS 1","tle1":"1 59065U 24039Q   26176.27676718  .00012046  00000+0  24920-3 0  9991","tle2":"2 59065  97.4821 157.4517 0011520  87.9590 272.2978 15.45879132129896"},{"id":"59371","name":"RESURS-P 4","tle1":"1 59371U 24061A   26176.29629698  .00003159  00000+0  10414-3 0  9991","tle2":"2 59371  97.2749 124.0537 0002702 117.4409 242.7109 15.32173305125007"},{"id":"59625","name":"LEGION 1","tle1":"1 59625U 24081A   26176.27594520  .00004005  00000+0  20760-3 0  9994","tle2":"2 59625  97.5019 254.0465 0008741 349.8137  10.2918 15.16716943118768"},{"id":"59626","name":"LEGION 2","tle1":"1 59626U 24081B   26176.24006450  .00004304  00000+0  22290-3 0  9994","tle2":"2 59626  97.5018 254.1083 0010124 313.1623  46.8763 15.16693889118763"},{"id":"60182","name":"ALOS-4 (DAICHI-4)","tle1":"1 60182U 24123A   26176.27446907  .00001228  00000+0  17130-3 0  9997","tle2":"2 60182  97.9216 273.3345 0001578  95.3814 264.7578 14.79471164107079"},{"id":"60452","name":"LEGION 3","tle1":"1 60452U 24146A   26176.16970965  .00004261  00000+0  23079-3 0  9995","tle2":"2 60452  45.0027 347.7422 0008636 215.0626 144.9685 15.16097318103238"},{"id":"60453","name":"LEGION 4","tle1":"1 60453U 24146B   26176.23875529  .00004109  00000+0  22294-3 0  9993","tle2":"2 60453  45.0016  79.2821 0012884 351.7031   8.3633 15.16089416102094"},{"id":"60989","name":"SENTINEL-2C","tle1":"1 60989U 24157A   26176.21449751  .00000085  00000+0  48954-4 0  9992","tle2":"2 60989  98.5691 250.8831 0000934  87.3726 272.7564 14.30819807 94139"},{"id":"61735","name":"IONOSFERA-M 1","tle1":"1 61735U 24199A   26176.28126999  .00000047  00000+0  40435-4 0  9995","tle2":"2 61735  98.7165  49.3677 0002138  99.7469 260.3950 14.22755695128859"}]